OUFTI-1                 
1 41458U 16025C   21049.83359977  .00002712  00000-0  13430-3 0  9999
2 41458  98.1246 179.9648 0161463  99.6949 262.2556 15.08004195264592
E-ST@R-II               
1 41459U 16025D   21049.82375441  .00003131  00000-0  15583-3 0  9990
2 41459  98.1234 179.1462 0163271 102.5065 259.4480 15.07481692264547
AAUSAT 4                
1 41460U 16025E   21049.81807390  .00003438  00000-0  16421-3 0  9996
2 41460  98.1224 182.4473 0150629  88.2215 273.6258 15.10267677264806
AIST-2D (RS-48)         
1 41465U 16026B   21049.88969130  .00001888  00000-0  56517-4 0  9998
2 41465  97.1238 297.9772 0013066  82.2577 338.9121 15.35666999269230
SAMSAT-218D             
1 41466U 16026C   21049.83295031  .00012420  00000-0  21295-3 0  9994
2 41466  97.1664 318.4049 0006601  33.0641  39.9221 15.51311945270421
NUSAT-1 (FRESCO)        
1 41557U 16033B   21049.83142056  .00001633  00000-0  60779-4 0  9996
2 41557  97.3942 144.4969 0011526 299.0801 176.0437 15.28889259263409
NUSAT-2 (BATATA)        
1 41558U 16033C   21049.86416684  .00001872  00000-0  65072-4 0  9997
2 41558  97.4028 147.8174 0010457 292.9057 186.2809 15.30968606263579
CARTOSAT-2C             
1 41599U 16040A   21049.84405839  .00000385  00000-0  21440-4 0  9997
2 41599  97.4167 111.4738 0015619  74.6062  53.4886 15.19280298258505
SATHYABAMASAT           
1 41600U 16040B   21049.90710457  .00001979  00000-0  80676-4 0  9998
2 41600  97.2895 110.1984 0014176  43.4826 316.7528 15.25520572259072
LAPAN-A3                
1 41603U 16040E   21049.90253649  .00000090  00000-0  72547-5 0  9998
2 41603  97.2746 101.2185 0014961  62.3024  57.8371 15.19960803258577
BIROS                   
1 41604U 16040F   21049.70147625  .00000533  00000-0  26009-4 0  9996
2 41604  97.2810 105.9982 0013311  45.1484 315.0832 15.22370692258838
SWAYAM                  
1 41607U 16040J   21049.11938628  .00001782  00000-0  73628-4 0  9991
2 41607  97.2854 108.3563 0013872  46.1307 314.1074 15.25210854258854
BEESAT-4                
1 41619U 16040W   21049.38522631  .00001670  00000-0  69790-4 0  9997
2 41619  97.2872 108.7498 0011745  40.0116 320.1985 15.24920406246862
3CAT-2                  
1 41732U 16051B   21049.77853939  .00001591  00000-0  60128-4 0  9994
2 41732  97.3770 331.1172 0012068 201.8464 217.7012 15.28404212251379
PRATHAM                 
1 41783U 16059A   21049.81218380  .00000049  00000-0  18705-4 0  9999
2 41783  97.9828 103.8778 0032221 259.5425 100.2146 14.63112628234900
ALSAT 1N                
1 41789U 16059G   21049.82107217  .00000078  00000-0  23584-4 0  9995
2 41789  97.9872 107.2921 0027055 244.7965 115.0416 14.64388984235082
LISHUI 1-01             
1 41845U 16066E   21049.79966450  .00006304  00000-0  80282-3 0  9999
2 41845  98.7290 147.0708 0280942 125.8164 236.9525 14.57878767226101
CARTOSAT-2D             
1 41948U 17008A   21049.85460168  .00000465  00000-0  25300-4 0  9995
2 41948  97.4587 111.7991 0006831 201.8532 158.2381 15.19264386222375
NAYIF-1 (EO-88)         
1 42017U 17008BX  21049.42947893  .00001911  00000-0  73693-4 0  9996
2 42017  97.3307 119.1286 0006674 157.1822 202.9715 15.27509990223080
ZHUHAI-1 02 (CAS-4B)    
1 42759U 17034B   21049.58117647  .00000354  00000-0  34721-4 0  9990
2 42759  43.0168 114.5339 0008117 144.0704   4.4707 15.10073771203171
ZHUHAI-1 01 (CAS-4A)    
1 42761U 17034D   21049.57805753  .00000368  00000-0  35514-4 0  9990
2 42761  43.0177 113.6897 0008954 147.5361 357.7655 15.10154881203177
UCLSAT                  
1 42765U 17036A   21049.39985823  .00001480  00000-0  63304-4 0  9997
2 42765  97.2680 102.6509 0009665 232.9500 127.0854 15.24331226204033
NIUSAT                  
1 42766U 17036B   21049.68747320  .00001017  00000-0  46993-4 0  9999
2 42766  97.2680  99.7021 0013885 229.7544 130.2479 15.22330775203146
CARTOSAT-2E             
1 42767U 17036C   21049.93128723  .00000416  00000-0  22908-4 0  9990
2 42767  97.3901 109.8666 0007315 263.1779  96.8623 15.19299875202952
LITUANICASAT-2          
1 42768U 17036D   21049.77729328  .00002593  00000-0  10528-3 0  9993
2 42768  97.2747 103.4778 0013099 220.1710 139.8561 15.25403864203376
AALTO-1                 
1 42775U 17036L   21049.39594090  .00000891  00000-0  41531-4 0  9993
2 42775  97.2654  99.7195 0012339 229.5220 130.4942 15.22346531203088
URSA MAIOR              
1 42776U 17036M   21049.87788292  .00000950  00000-0  43791-4 0  9992
2 42776  97.2666 100.5862 0012189 227.0149 133.0067 15.22582488203170
COMPASS 2               
1 42777U 17036N   21049.71041455  .00001947  00000-0  80775-4 0  9999
2 42777  97.2731 103.6921 0010793 221.0985 138.9441 15.24988079203319
MAX VALIER SAT          
1 42778U 17036P   21049.87595716  .00000974  00000-0  44021-4 0  9994
2 42778  97.2728 102.2914 0010761 228.6642 131.3670 15.23217015203237
PEGASUS                 
1 42784U 17036V   21049.41367711  .00001330  00000-0  57780-4 0  9996
2 42784  97.2685 102.2478 0010216 234.8327 125.1954 15.23951089203226
NUDTSAT                 
1 42787U 17036Y   21049.88956365  .00002103  00000-0  85380-4 0  9995
2 42787  97.2733 104.7449 0009045 233.3874 126.6528 15.25638391203253
SUCHAI                  
1 42788U 17036Z   21049.40513746  .00001597  00000-0  67442-4 0  9991
2 42788  97.2694 103.0808 0009781 231.6502 128.3858 15.24642220203347
SKCUBE                  
1 42789U 17036AA  21049.54660644  .00001451  00000-0  61944-4 0  9997
2 42789  97.2688 102.9839 0009683 231.6794 128.3574 15.24422308203277
VZLUSAT-1               
1 42790U 17036AB  21049.81635710  .00002124  00000-0  86262-4 0  9993
2 42790  97.2718 104.6626 0009222 225.6006 134.4478 15.25613158203394
ROBUSTA-1B              
1 42792U 17036AD  21049.73023230  .00001531  00000-0  64768-4 0  9992
2 42792  97.2691 103.4965 0009272 230.7962 129.2453 15.24642129203330
D-SAT                   
1 42794U 17036AF  21049.74760859  .00000442  00000-0  43658-4 0  9995
2 42794  97.4722  75.8849 0124263 262.4998  96.2090 14.91454857199360
NORSAT 2                
1 42828U 17042D   21049.57772229  .00000257  00000-0  30720-4 0  9995
2 42828  97.4952 286.5005 0014217 176.3817 183.7508 14.91729844196014
TECHNOSAT               
1 42829U 17042E   21049.88986091  .00000050  00000-0  10303-4 0  9990
2 42829  97.4873 285.5942 0014150 176.8532 183.2778 14.91219254196014
2017-042F               
1 42830U 17042F   21049.89621645  .00000518  00000-0  55414-4 0  9995
2 42830  97.4981 287.7880 0014096 170.0772 190.0729 14.92637570196111
FLYING LAPTOP           
1 42831U 17042G   21049.79741996  .00000170  00000-0  22326-4 0  9997
2 42831  97.4878 285.6986 0014022 177.3292 182.8022 14.91237911196004
CORVUS BC2              
1 42846U 17042X   21049.47899940  .00000276  00000-0  32240-4 0  9994
2 42846  97.4910 287.4553 0009756 167.5459 192.6004 14.92229135196099
CORVUS BC1              
1 42847U 17042Y   21049.59202517  .00000274  00000-0  31931-4 0  9990
2 42847  97.4914 287.7784 0009447 165.8588 194.2898 14.92330650196111
SIMPL                   
1 42983U 98067NF  21049.87363866  .00006193  00000-0  68270-4 0  9995
2 42983  51.6370 140.9307 0003011 267.0860  92.9791 15.64623401188824
CZ-4C R/B               
1 43012U 17072C   21049.61547441  .00000068  00000-0  25702-4 0  9999
2 43012  98.7332  58.7309 0127438 356.3656   3.6602 14.56143763173441
RADFXSAT (FOX-1B)       
1 43017U 17073E   21049.70282113  .00000887  00000-0  74210-4 0  9994
2 43017  97.7155 318.3576 0255068 328.0373  30.5578 14.79323020175569
EAGLESAT 1              
1 43018U 17073F   21049.74904273  .00001473  00000-0  11771-3 0  9991
2 43018  97.7159 319.1073 0252168 325.1345  33.3567 14.80238558175483
ECAMSAT                 
1 43019U 98067NG  21049.55693879  .00016067  00000-0  11935-3 0  9997
2 43019  51.6398 117.1488 0002830 274.2469  85.8206 15.73026672271433
INS-1C                  
1 43116U 18004F   21049.74658600  .00001358  00000-0  57878-4 0  9996
2 43116  97.4260 125.3189 0007586 256.9766 103.0625 15.24652124172550
FLOCK 3P'-3             
1 43119U 18004J   21049.77727698  .00000811  00000-0  36500-4 0  9998
2 43119  97.4248 124.4110 0008338 265.9534  94.0750 15.23921831172508
FLOCK 3P'-2             
1 43120U 18004K   21049.72945953  .00000673  00000-0  31023-4 0  9992
2 43120  97.4254 124.2053 0008352 266.5449  93.4833 15.23646514172483
FLOCK 3P'-1             
1 43121U 18004L   21049.91279591  .00003238  00000-0  12848-3 0  9995
2 43121  97.4250 125.7545 0007712 260.4052  99.6315 15.26062590172532
FLOCK 3P'-4             
1 43122U 18004M   21049.46433242  .00000820  00000-0  37133-4 0  9990
2 43122  97.4263 124.0301 0008160 270.3943  89.6359 15.23668264172440
MICROMAS-2A             
1 43131U 18004W   21049.77365183  .00002407  00000-0  94938-4 0  9991
2 43131  97.4224 126.4634 0007089 259.2057 100.8384 15.26522943172656
PICSAT                  
1 43132U 18004X   21049.86599352  .00001601  00000-0  66421-4 0  9990
2 43132  97.4210 125.4563 0007646 264.9591  95.0774 15.25314699172606
CNUSAIL-1               
1 43133U 18004Y   21049.16408948  .00001131  00000-0  48986-4 0  9998
2 43133  97.4191 123.9788 0007712 270.5137  89.5217 15.24449366172452
2018-004Z               
1 43134U 18004Z   21049.75625858  .00001355  00000-0  57240-4 0  9996
2 43134  97.4203 125.1127 0007488 266.9014  93.1367 15.24974395172576
FOX-1D (AO-92)          
1 43137U 18004AC  21049.76896593  .00001156  00000-0  49474-4 0  9995
2 43137  97.4190 124.9825 0007282 268.7253  91.3150 15.24810955172574
STEP CUBE LAB           
1 43138U 18004AD  21049.73773541  .00002052  00000-0  82090-4 0  9997
2 43138  97.4222 126.3418 0006952 264.5629  95.4816 15.26226160172642
XIAOXIANG-2             
1 43155U 18008A   21049.88920832  .00000547  00000-0  35355-4 0  9992
2 43155  97.4172 118.3566 0017864  24.0786  63.5148 15.12124805170153
